[{"OBJECT_NAME":"JILIN-1 09","OBJECT_ID":"2019-005B","EPOCH":"2026-03-09T21:49:20.163360","MEAN_MOTION":15.19514186,"ECCENTRICITY":0.00037399,"INCLINATION":97.4701,"RA_OF_ASC_NODE":164.8178,"ARG_OF_PERICENTER":87.3947,"MEAN_ANOMALY":272.7716,"EPHEMERIS_TYPE":0,"CLASSIFICATION_TYPE":"U","NORAD_CAT_ID":43943,"ELEMENT_SET_NO":999,"REV_AT_EPOCH":39406,"BSTAR":0.00030815291,"MEAN_MOTION_DOT":6.478e-5,"MEAN_MOTION_DDOT":0},{"OBJECT_NAME":"OBJECT D","OBJECT_ID":"2026-023D","EPOCH":"2026-03-09T17:19:13.762848","MEAN_MOTION":15.22920595,"ECCENTRICITY":0.00208003,"INCLINATION":96.6418,"RA_OF_ASC_NODE":141.6791,"ARG_OF_PERICENTER":127.3034,"MEAN_ANOMALY":233.0105,"EPHEMERIS_TYPE":0,"CLASSIFICATION_TYPE":"U","NORAD_CAT_ID":67677,"ELEMENT_SET_NO":999,"REV_AT_EPOCH":485,"BSTAR":0.00050428287,"MEAN_MOTION_DOT":0.00011849,"MEAN_MOTION_DDOT":0}]
